IRIDIUM 39              
1 25042U 97069D   25330.51560346  .00000898  00000+0  22857-3 0  9998
2 25042  86.3905 141.5901 0019505 120.8818 239.4308 14.49466552472474
IRIDIUM 38              
1 25043U 97069E   25330.62870244  .00000524  00000+0  16603-3 0  9990
2 25043  86.3973 164.8822 0000597  18.1255 341.9964 14.38290928469300
IRIDIUM 42              
1 25077U 97077A   25330.83490083  .00000473  00000+0  15468-3 0  9999
2 25077  86.3984 171.1616 0001464  69.1769 290.9585 14.36511537464544
IRIDIUM 44              
1 25078U 97077B   25330.55851493  .00000500  00000+0  15120-3 0  9991
2 25078  86.3962 152.7847 0001831 146.0542 214.0774 14.40411458467078
IRIDIUM 45              
1 25104U 97082A   25330.78863196  .00026916  00000+0  78003-3 0  9993
2 25104  86.3546 328.5329 0104065  79.8014 281.4951 15.30079580476839
IRIDIUM 24              
1 25105U 97082B   25330.66794833  .00000568  00000+0  16608-3 0  9990
2 25105  86.3925  11.3717 0009217 258.3281 101.6885 14.42305340466636
IRIDIUM 51              
1 25262U 98018A   25330.80210225  .00092875  00000+0  11287-2 0  9997
2 25262  86.3747 334.4049 0055254 342.4303  17.5047 15.58369144472161
IRIDIUM 57              
1 25273U 98019B   25330.74573675  .00000509  00000+0  16831-3 0  9998
2 25273  86.3954  77.0971 0001971  94.9496 265.1926 14.36032738448112
